0 THORAD AGENA D DEB
1 04207U 69082BW  13280.86669628  .00001282  00000-0  35208-3 0  6365
2 04207 069.9679 071.3701 0036534 336.2496 175.1620 14.48893588292759
0 THORAD AGENA D DEB
1 04207U 69082BW  13282.50759848  .00001436  00000-0  39224-3 0  6376
2 04207 069.9681 067.5381 0036657 333.9528 094.1201 14.48904922292995
0 THORAD AGENA D DEB
1 04207U 69082BW  13283.74951653  .00001384  00000-0  37864-3 0  6382
2 04207 069.9683 064.6378 0036737 332.2810 091.9466 14.48909455293171
0 THORAD AGENA D DEB
1 04207U 69082BW  13285.83775373  .00001587  00000-0  43171-3 0  6403
2 04207 069.9686 059.7609 0036897 329.3606 184.3198 14.48914794293477
0 THORAD AGENA D DEB
1 04207U 69082BW  13287.47709966  .00002203  00000-0  59273-3 0  6417
2 04207 069.9690 055.9348 0036875 327.0253 095.3324 14.48918863293719
0 THORAD AGENA D DEB
1 04207U 69082BW  13288.51522880  .00002458  00000-0  65920-3 0  6420
2 04207 069.9691 053.5081 0037177 325.5867 110.3026 14.48926571293866
0 THORAD AGENA D DEB
1 04207U 69082BW  13289.69545473  .00002021  00000-0  54491-3 0  6431
2 04207 069.9693 050.7522 0037261 324.0409 146.3988 14.48932200294039
0 THORAD AGENA D DEB
1 04207U 69082BW  13290.73117255  .00002424  00000-0  65034-3 0  6444
2 04207 069.9701 048.3361 0037181 322.5454 148.8998 14.48934649294180
0 THORAD AGENA D DEB
1 04207U 69082BW  13291.75935425  .00002201  00000-0  59198-3 0  6452
2 04207 069.9702 045.9352 0037241 321.2253 111.9384 14.48938026294334
0 THORAD AGENA D DEB
1 04207U 69082BW  13293.48573088  .00002676  00000-0  71574-3 0  6466
2 04207 069.9701 041.9038 0037399 318.8512 116.9866 14.48945451294581
0 THORAD AGENA D DEB
1 04207U 69082BW  13294.74286608  .00002841  00000-0  75883-3 0  6477
2 04207 069.9700 038.9680 0037486 317.1784 194.3703 14.48951510294762
